NORAD_CAT_ID,OBJECT_NAME,OBJECT_TYPE,EPOCH,MEAN_MOTION,ECCENTRICITY,INCLINATION,RA_OF_ASC_NODE,ARG_OF_PERICENTER,MEAN_ANOMALY,BSTAR,MEAN_MOTION_DOT,MEAN_MOTION_DDOT,TLE_LINE0,TLE_LINE1,TLE_LINE2,SEMIMAJOR_AXIS,PERIOD,APOGEE,PERIGEE,DECAYED
53416.0,STARLINK-4480,PAYLOAD,2024-07-02 12:07:08,15.08851377,0.0002044,53.2184,355.7449,85.3718,274.7508,9.3734e-05,1.204e-05,0.0,0 STARLINK-4480,1 53416U 22097AE  24184.50495451  .00001204  00000-0  93734-4 0  9998,2 53416  53.2184 355.7449 0002044  85.3718 274.7508 15.08851377105759,6917.846,95.437,541.125,538.297,0.0
53416.0,STARLINK-4480,PAYLOAD,2024-07-02 18:28:41,15.0883709,0.0001108,53.2187,354.5581,93.5431,266.5688,-3.4587e-05,-8.38e-06,0.0,0 STARLINK-4480,1 53416U 22097AE  24184.76992544 -.00000838  00000-0 -34587-4 0  9996,2 53416  53.2187 354.5581 0001108  93.5431 266.5688 15.08837090105337,6917.889,95.438,540.521,538.988,0.0
53416.0,STARLINK-4480,PAYLOAD,2024-07-03 18:19:28,15.08835359,8.71e-05,53.2188,350.0964,93.8357,266.2735,9.1899e-05,1.175e-05,0.0,0 STARLINK-4480,1 53416U 22097AE  24185.76352518  .00001175  00000-0  91899-4 0  9990,2 53416  53.2188 350.0964 0000871  93.8357 266.2735 15.08835359105943,6917.895,95.438,540.362,539.157,0.0
53416.0,STARLINK-4480,PAYLOAD,2024-07-04 03:51:46,15.08847478,7.97e-05,53.2182,348.3098,74.7826,285.3254,0.00010005,1.305e-05,0.0,0 STARLINK-4480,1 53416U 22097AE  24186.16095724  .00001305  00000-0  10005-3 0  9992,2 53416  53.2182 348.3098 0000797  74.7826 285.3254 15.08847478105540,6917.858,95.437,540.274,539.171,0.0
53416.0,STARLINK-4480,PAYLOAD,2024-07-04 10:13:20,15.08833711,0.0001386,53.2182,347.1208,85.7558,274.3593,0.00015185,2.129e-05,0.0,0 STARLINK-4480,1 53416U 22097AE  24186.42592653  .00002129  00000-0  15185-3 0  9993,2 53416  53.2182 347.1208 0001386  85.7558 274.3593 15.08833711105582,6917.9,95.438,540.723,538.806,0.0
53416.0,STARLINK-4480,PAYLOAD,2024-07-04 14:59:29,15.08830928,0.0001301,53.2175,346.2292,91.7659,268.3483,4.9922e-05,5.07e-06,0.0,0 STARLINK-4480,1 53416U 22097AE  24186.62464724  .00000507  00000-0  49922-4 0  9997,2 53416  53.2175 346.2292 0001301  91.7659 268.3483 15.08830928106076,6917.908,95.438,540.673,538.873,0.0
53416.0,STARLINK-4480,PAYLOAD,2024-07-04 18:10:15,15.08839235,8.45e-05,53.2169,345.6324,67.8727,292.2354,0.00013855,1.918e-05,0.0,0 STARLINK-4480,1 53416U 22097AE  24186.75712431  .00001918  00000-0  13855-3 0  9994,2 53416  53.2169 345.6324 0000845  67.8727 292.2354 15.08839235106095,6917.883,95.438,540.332,539.163,0.0
53416.0,STARLINK-4480,PAYLOAD,2024-07-05 03:42:33,15.08850029,9.88e-05,53.2179,343.849,68.9208,291.1889,0.00024953,3.687e-05,0.0,0 STARLINK-4480,1 53416U 22097AE  24187.15455876  .00003687  00000-0  24953-3 0  9992,2 53416  53.2179 343.8490 0000988  68.9208 291.1889 15.08850029105694,6917.85,95.437,540.398,539.031,0.0
53416.0,STARLINK-4480,PAYLOAD,2024-07-05 18:01:02,15.08845418,8.45e-05,53.2172,341.1724,73.866,286.2425,0.00011642,1.566e-05,0.0,0 STARLINK-4480,1 53416U 22097AE  24187.75072015  .00001566  00000-0  11642-3 0  9993,2 53416  53.2172 341.1724 0000845  73.8660 286.2425 15.08845418105784,6917.864,95.437,540.313,539.144,0.0
53416.0,STARLINK-4480,PAYLOAD,2024-07-06 03:33:20,15.08853751,8.26e-05,53.2172,339.3882,72.516,287.5923,0.00021364,3.115e-05,0.0,0 STARLINK-4480,1 53416U 22097AE  24188.14815447  .00003115  00000-0  21364-3 0  9995,2 53416  53.2172 339.3882 0000826  72.5160 287.5923 15.08853751105841,6917.838,95.437,540.275,539.132,0.0
53416.0,STARLINK-4480,PAYLOAD,2024-07-06 14:41:03,15.0882768,0.000107,53.218,337.3082,73.5088,286.6022,-3.6164e-05,-8.63e-06,0.0,0 STARLINK-4480,1 53416U 22097AE  24188.61185071 -.00000863  00000-0 -36164-4 0  9994,2 53416  53.2180 337.3082 0001070  73.5088 286.6022 15.08827680106373,6917.918,95.438,540.523,539.043,0.0
53416.0,STARLINK-4480,PAYLOAD,2024-07-06 19:27:12,15.08834742,0.0001118,53.2182,336.4116,87.4588,272.6532,-7.2052e-05,-1.434e-05,0.0,0 STARLINK-4480,1 53416U 22097AE  24188.81056528 -.00001434  00000-0 -72052-4 0  9991,2 53416  53.2182 336.4116 0001118  87.4588 272.6532 15.08834742105945,6917.896,95.438,540.535,538.988,0.0
53416.0,STARLINK-4480,PAYLOAD,2024-07-07 09:45:41,15.08837066,0.0001239,53.2203,333.7371,93.5582,266.5551,0.00011878,1.603e-05,0.0,0 STARLINK-4480,1 53416U 22097AE  24189.40672774  .00001603  00000-0  11878-3 0  9998,2 53416  53.2203 333.7371 0001239  93.5582 266.5551 15.08837066106494,6917.889,95.438,540.611,538.897,0.0
53416.0,STARLINK-4480,PAYLOAD,2024-07-07 16:07:13,15.08841151,0.0001192,53.2188,332.5494,83.8522,276.2606,0.0001331,1.831e-05,0.0,0 STARLINK-4480,1 53416U 22097AE  24189.67168725  .00001831  00000-0  13310-3 0  9999,2 53416  53.2188 332.5494 0001192  83.8522 276.2606 15.08841151106076,6917.877,95.437,540.566,538.917,0.0
53416.0,STARLINK-4480,PAYLOAD,2024-07-08 14:22:37,15.08841632,0.0001094,53.218,328.3852,98.9673,261.1443,0.0002432,3.585e-05,0.0,0 STARLINK-4480,1 53416U 22097AE  24190.59904809  .00003585  00000-0  24320-3 0  9994,2 53416  53.2180 328.3852 0001094  98.9673 261.1443 15.08841632106676,6917.875,95.437,540.497,538.984,0.0
53416.0,STARLINK-4480,PAYLOAD,2024-07-08 19:08:47,15.08844415,0.000112,53.2178,327.4939,90.6725,269.4396,0.00017714,2.533e-05,0.0,0 STARLINK-4480,1 53416U 22097AE  24190.79776685  .00002533  00000-0  17714-3 0  9996,2 53416  53.2178 327.4939 0001120  90.6725 269.4396 15.08844415106249,6917.867,95.437,540.507,538.957,0.0
53416.0,STARLINK-4480,PAYLOAD,2024-07-09 12:38:01,15.0883659,0.0001084,53.2174,324.2229,91.698,268.4137,5.1416e-05,5.31e-06,0.0,0 STARLINK-4480,1 53416U 22097AE  24191.52641038  .00000531  00000-0  51416-4 0  9995,2 53416  53.2174 324.2229 0001084  91.6980 268.4137 15.08836590106354,6917.891,95.438,540.506,539.006,0.0
53416.0,STARLINK-4480,PAYLOAD,2024-07-09 14:13:25,15.08836296,0.0001082,53.2175,323.9256,91.4796,268.632,4.0826e-05,3.62e-06,0.0,0 STARLINK-4480,1 53416U 22097AE  24191.59265050  .00000362  00000-0  40826-4 0  9993,2 53416  53.2175 323.9256 0001082  91.4796 268.6320 15.08836296106823,6917.892,95.438,540.505,539.008,0.0
53416.0,STARLINK-4480,PAYLOAD,2024-07-09 15:48:48,15.0883738,0.0001051,53.2174,323.6288,89.7069,270.4044,5.2306e-05,5.45e-06,0.0,0 STARLINK-4480,1 53416U 22097AE  24191.65889000  .00000545  00000-0  52306-4 0  9996,2 53416  53.2174 323.6288 0001051  89.7069 270.4044 15.08837380106833,6917.888,95.438,540.48,539.026,0.0
53416.0,STARLINK-4480,PAYLOAD,2024-07-10 01:21:06,15.08849023,9.67e-05,53.2174,321.8435,85.523,274.5873,0.00016447,2.331e-05,0.0,0 STARLINK-4480,1 53416U 22097AE  24192.05632274  .00002331  00000-0  16447-3 0  9990,2 53416  53.2174 321.8435 0000967  85.5230 274.5873 15.08849023106434,6917.853,95.437,540.387,539.049,0.0
53416.0,STARLINK-4480,PAYLOAD,2024-07-10 09:18:02,15.0883757,0.0001678,53.2169,320.3569,86.6919,273.4265,2.4419e-05,1.01e-06,0.0,0 STARLINK-4480,1 53416U 22097AE  24192.38753066  .00000101  00000-0  24419-4 0  9991,2 53416  53.2169 320.3569 0001678  86.6919 273.4265 15.08837570106488,6917.888,95.438,540.914,538.592,0.0
53416.0,STARLINK-4480,PAYLOAD,2024-07-10 17:14:58,15.08838838,0.0001144,53.2173,318.8723,96.1016,264.0106,4.6286e-05,4.49e-06,0.0,0 STARLINK-4480,1 53416U 22097AE  24192.71873181  .00000449  00000-0  46286-4 0  9990,2 53416  53.2173 318.8723 0001144  96.1016 264.0106 15.08838838106993,6917.884,95.438,540.54,538.958,0.0
53416.0,STARLINK-4480,PAYLOAD,2024-07-11 13:54:59,15.08839819,0.000126,53.219,315.0078,98.4236,261.6899,0.00011804,1.591e-05,0.0,0 STARLINK-4480,1 53416U 22097AE  24193.57985005  .00001591  00000-0  11804-3 0  9990,2 53416  53.2190 315.0078 0001260  98.4236 261.6899 15.08839819107120,6917.881,95.438,540.618,538.874,0.0
53416.0,STARLINK-4480,PAYLOAD,2024-07-12 01:02:40,15.08856515,0.0001085,53.2184,312.9239,75.6941,284.4171,0.00025193,3.726e-05,0.0,0 STARLINK-4480,1 53416U 22097AE  24194.04352051  .00003726  00000-0  25193-3 0  9990,2 53416  53.2184 312.9239 0001085  75.6941 284.4171 15.08856515106737,6917.83,95.437,540.445,538.944,0.0
53416.0,STARLINK-4480,PAYLOAD,2024-07-12 13:45:46,15.08833946,0.0001397,53.2185,310.5463,82.8437,277.2714,-5.6227e-05,-1.183e-05,0.0,0 STARLINK-4480,1 53416U 22097AE  24194.57345282 -.00001183  00000-0 -56227-4 0  9996,2 53416  53.2185 310.5463 0001397  82.8437 277.2714 15.08833946106812,6917.899,95.438,540.73,538.797,0.0
53416.0,STARLINK-4480,PAYLOAD,2024-07-12 15:21:09,15.0883637,0.0001297,53.2176,310.2486,83.3537,276.7602,2.3521e-06,-2.5e-06,0.0,0 STARLINK-4480,1 53416U 22097AE  24194.63969186 -.00000250  00000-0  23521-5 0  9993,2 53416  53.2176 310.2486 0001297  83.3537 276.7602 15.08836370107286,6917.891,95.438,540.654,538.859,0.0
53416.0,STARLINK-4480,PAYLOAD,2024-07-13 00:53:27,15.08847754,0.0001317,53.2183,308.4649,82.7069,277.4073,0.0002324,3.413e-05,0.0,0 STARLINK-4480,1 53416U 22097AE  24195.03712828  .00003413  00000-0  23240-3 0  9996,2 53416  53.2183 308.4649 0001317  82.7069 277.4073 15.08847754106883,6917.857,95.437,540.633,538.811,0.0
53416.0,STARLINK-4480,PAYLOAD,2024-07-13 13:36:33,15.08837406,0.0001469,53.2175,306.0867,81.409,278.7068,5.7145e-05,6.22e-06,0.0,0 STARLINK-4480,1 53416U 22097AE  24195.56705451  .00000622  00000-0  57145-4 0  9999,2 53416  53.2175 306.0867 0001469  81.4090 278.7068 15.08837406106968,6917.888,95.438,540.77,538.737,0.0
53416.0,STARLINK-4480,PAYLOAD,2024-07-13 15:11:56,15.08842569,0.0001236,53.2168,305.7891,80.217,279.8962,0.00017324,2.471e-05,0.0,0 STARLINK-4480,1 53416U 22097AE  24195.63329239  .00002471  00000-0  17324-3 0  9991,2 53416  53.2168 305.7891 0001236  80.2170 279.8962 15.08842569107435,6917.873,95.437,540.593,538.882,0.0
53416.0,STARLINK-4480,PAYLOAD,2024-07-14 00:44:14,15.0885669,0.0001234,53.2166,304.0042,87.4427,272.6706,0.00064023,9.921e-05,0.0,0 STARLINK-4480,1 53416U 22097AE  24196.03072831  .00009921  00000-0  64023-3 0  9994,2 53416  53.2166 304.0042 0001234  87.4427 272.6706 15.08856690107038,6917.829,95.436,540.548,538.841,0.0
